OBJECT C                
1 57582U 23117C   25226.93411839  .00007214  00000+0  27585-3 0  9999
2 57582  97.4407 301.6371 0007400 243.1417 116.9066 15.26874163111638
